{
  "links" : {
    "next" : "https://api.nasa.gov/neo/rest/v1/feed?start_date=2008-12-16&end_date=2008-12-16&detailed=true&api_key=t0TVs3DtDT2H8Oy2Zy8m2eVrNsAVKAexjcZXUckd",
    "prev" : "https://api.nasa.gov/neo/rest/v1/feed?start_date=2008-12-14&end_date=2008-12-14&detailed=true&api_key=t0TVs3DtDT2H8Oy2Zy8m2eVrNsAVKAexjcZXUckd",
    "self" : "https://api.nasa.gov/neo/rest/v1/feed?start_date=2008-12-15&end_date=2008-12-15&detailed=true&api_key=t0TVs3DtDT2H8Oy2Zy8m2eVrNsAVKAexjcZXUckd"
  },
  "element_count" : 6,
  "near_earth_objects" : {
    "2008-12-15" : [ {
      "links" : {
        "self" : "https://api.nasa.gov/neo/rest/v1/neo/2190135?api_key=t0TVs3DtDT2H8Oy2Zy8m2eVrNsAVKAexjcZXUckd"
      },
      "neo_reference_id" : "2190135",
      "name" : "190135 (2005 QE30)",
      "nasa_jpl_url" : "http://ssd.jpl.nasa.gov/sbdb.cgi?sstr=2190135",
      "absolute_magnitude_h" : 17.2,
      "estimated_diameter" : {
        "kilometers" : {
          "estimated_diameter_min" : 0.9650614696,
          "estimated_diameter_max" : 2.1579430484
        },
        "meters" : {
          "estimated_diameter_min" : 965.0614695789,
          "estimated_diameter_max" : 2157.9430484443
        },
        "miles" : {
          "estimated_diameter_min" : 0.5996612104,
          "estimated_diameter_max" : 1.34088323
        },
        "feet" : {
          "estimated_diameter_min" : 3166.2122718533,
          "estimated_diameter_max" : 7079.8658710581
        }
      },
      "is_potentially_hazardous_asteroid" : false,
      "close_approach_data" : [ {
        "close_approach_date" : "2008-12-15",
        "epoch_date_close_approach" : 1229328000000,
        "relative_velocity" : {
          "kilometers_per_second" : "16.7107373679",
          "kilometers_per_hour" : "60158.6545242632",
          "miles_per_hour" : "37380.2484181457"
        },
        "miss_distance" : {
          "astronomical" : "0.3150745771",
          "lunar" : "122.5640029907",
          "kilometers" : "47134484",
          "miles" : "29288010"
        },
        "orbiting_body" : "Earth"
      } ],
      "orbital_data" : {
        "orbit_id" : "61",
        "orbit_determination_date" : "2017-04-06 09:25:43",
        "orbit_uncertainty" : "0",
        "minimum_orbit_intersection" : ".078411",
        "jupiter_tisserand_invariant" : "3.476",
        "epoch_osculation" : "2458000.5",
        "eccentricity" : ".6886183138967675",
        "semi_major_axis" : "2.017984306895917",
        "inclination" : "6.230435508035438",
        "ascending_node_longitude" : "259.8510183625158",
        "orbital_period" : "1047.068522295903",
        "perihelion_distance" : ".6283633560111137",
        "perihelion_argument" : "216.9534779949508",
        "aphelion_distance" : "3.407605257780721",
        "perihelion_time" : "2457974.218527873368",
        "mean_anomaly" : "9.036017953096044",
        "mean_motion" : ".3438170399876306",
        "equinox" : "J2000"
      }
    }, {
      "links" : {
        "self" : "https://api.nasa.gov/neo/rest/v1/neo/2420262?api_key=t0TVs3DtDT2H8Oy2Zy8m2eVrNsAVKAexjcZXUckd"
      },
      "neo_reference_id" : "2420262",
      "name" : "420262 (2011 KD11)",
      "nasa_jpl_url" : "http://ssd.jpl.nasa.gov/sbdb.cgi?sstr=2420262",
      "absolute_magnitude_h" : 20.1,
      "estimated_diameter" : {
        "kilometers" : {
          "estimated_diameter_min" : 0.2538370294,
          "estimated_diameter_max" : 0.5675968529
        },
        "meters" : {
          "estimated_diameter_min" : 253.8370293645,
          "estimated_diameter_max" : 567.5968528656
        },
        "miles" : {
          "estimated_diameter_min" : 0.1577269688,
          "estimated_diameter_max" : 0.3526882241
        },
        "feet" : {
          "estimated_diameter_min" : 832.7986794202,
          "estimated_diameter_max" : 1862.1944587557
        }
      },
      "is_potentially_hazardous_asteroid" : false,
      "close_approach_data" : [ {
        "close_approach_date" : "2008-12-15",
        "epoch_date_close_approach" : 1229328000000,
        "relative_velocity" : {
          "kilometers_per_second" : "8.9433265155",
          "kilometers_per_hour" : "32195.97545567",
          "miles_per_hour" : "20005.3270824412"
        },
        "miss_distance" : {
          "astronomical" : "0.4668169264",
          "lunar" : "181.5917816162",
          "kilometers" : "69834816",
          "miles" : "43393344"
        },
        "orbiting_body" : "Earth"
      } ],
      "orbital_data" : {
        "orbit_id" : "41",
        "orbit_determination_date" : "2017-05-21 06:18:29",
        "orbit_uncertainty" : "0",
        "minimum_orbit_intersection" : ".114573",
        "jupiter_tisserand_invariant" : "4.235",
        "epoch_osculation" : "2458000.5",
        "eccentricity" : ".4226469283527128",
        "semi_major_axis" : "1.587089264857485",
        "inclination" : "17.12931638070232",
        "ascending_node_longitude" : "257.5903086792275",
        "orbital_period" : "730.2985829850173",
        "perihelion_distance" : ".9163108620439042",
        "perihelion_argument" : "253.327004031793",
        "aphelion_distance" : "2.257867667671067",
        "perihelion_time" : "2457817.938602316951",
        "mean_anomaly" : "89.99346937969618",
        "mean_motion" : ".4929490599975403",
        "equinox" : "J2000"
      }
    }, {
      "links" : {
        "self" : "https://api.nasa.gov/neo/rest/v1/neo/3264323?api_key=t0TVs3DtDT2H8Oy2Zy8m2eVrNsAVKAexjcZXUckd"
      },
      "neo_reference_id" : "3264323",
      "name" : "(2004 YG1)",
      "nasa_jpl_url" : "http://ssd.jpl.nasa.gov/sbdb.cgi?sstr=3264323",
      "absolute_magnitude_h" : 21.4,
      "estimated_diameter" : {
        "kilometers" : {
          "estimated_diameter_min" : 0.1394938229,
          "estimated_diameter_max" : 0.3119176705
        },
        "meters" : {
          "estimated_diameter_min" : 139.4938229344,
          "estimated_diameter_max" : 311.9176705226
        },
        "miles" : {
          "estimated_diameter_min" : 0.0866774163,
          "estimated_diameter_max" : 0.1938165949
        },
        "feet" : {
          "estimated_diameter_min" : 457.6569140361,
          "estimated_diameter_max" : 1023.3519701574
        }
      },
      "is_potentially_hazardous_asteroid" : false,
      "close_approach_data" : [ {
        "close_approach_date" : "2008-12-15",
        "epoch_date_close_approach" : 1229328000000,
        "relative_velocity" : {
          "kilometers_per_second" : "10.382055792",
          "kilometers_per_hour" : "37375.4008510625",
          "miles_per_hour" : "23223.6206010394"
        },
        "miss_distance" : {
          "astronomical" : "0.2383361238",
          "lunar" : "92.7127532959",
          "kilometers" : "35654580",
          "miles" : "22154728"
        },
        "orbiting_body" : "Earth"
      } ],
      "orbital_data" : {
        "orbit_id" : "22",
        "orbit_determination_date" : "2017-04-06 09:11:39",
        "orbit_uncertainty" : "1",
        "minimum_orbit_intersection" : ".0629519",
        "jupiter_tisserand_invariant" : "5.971",
        "epoch_osculation" : "2458000.5",
        "eccentricity" : ".1588244668008033",
        "semi_major_axis" : "1.009927264794176",
        "inclination" : "19.81747745183783",
        "ascending_node_longitude" : "271.7351130857661",
        "orbital_period" : "370.7093776019544",
        "perihelion_distance" : ".8495261054556476",
        "perihelion_argument" : "293.8462013893724",
        "aphelion_distance" : "1.170328424132705",
        "perihelion_time" : "2457901.372497319148",
        "mean_anomaly" : "96.26382045135145",
        "mean_motion" : ".9711111230278789",
        "equinox" : "J2000"
      }
    } ]
  }
}